HST                     
1 20580U 90037B   26201.25862586  .00003225  00000+0  96917-4 0  9994
2 20580  28.4721 214.4792 0002120 152.4827 207.5881 15.31090554793647
POLAR                   
1 23802U 96013A   26200.38703378  .00000162  00000+0  00000+0 0  9990
2 23802  79.8986 226.6697 6502662 207.9705  92.0144  1.29846046145278
SWAS                    
1 25560U 98071A   26201.14429658  .00001746  00000+0  11439-3 0  9991
2 25560  69.8945 142.5187 0007591 224.9720 135.0830 15.09765813502245
CXO                     
1 25867U 99040B   26203.75757577  .00000588  00000+0  00000+0 0  9992
2 25867  56.6521 115.7083 7776511 309.9609   0.5640  0.37802015 17458
XMM-NEWTON              
1 25989U 99066A   26201.25992622 -.00000007  00000+0  00000+0 0  9997
2 25989  64.3074 282.5600 4664570  64.3171   0.0365  0.50127970 23163
TERRA                   
1 25994U 99068A   26201.23333441  .00000183  00000+0  46234-4 0  9999
2 25994  97.9437 249.4663 0003584 113.1192 319.2409 14.61126000414437
CLUSTER II-FM7 (SAMBA)  
1 26410U 00041A   26201.60182196  .00010308 -30415-5  00000+0 0  9992
2 26410 149.8020  56.9135 9091714 274.4939 359.4480  0.44850593 20460
CLUSTER II-FM8 (TANGO)  
1 26464U 00045B   26199.95355120  .00014903 -89736-5  00000+0 0  9993
2 26464 150.0065  57.8200 9095390 275.2268   2.0610  0.44421506 20456
ODIN                    
1 26702U 01007A   26201.08652123  .00328733  43055-4  97864-3 0  9997
2 26702  97.3670 244.4948 0005124 155.1636 204.9886 15.92415357394606
TIMED                   
1 26998U 01055B   26201.05854661  .00000597  00000+0  57743-4 0  9991
2 26998  74.0670 168.8292 0002345 294.9378  65.1563 14.95350599335739
CORIOLIS                
1 27640U 03001A   26201.24519807  .00000042  00000+0  40098-4 0  9990
2 27640  98.7137 207.6264 0015098 115.7333 244.5404 14.19952733218917
SORCE                   
1 27651U 03004A   26201.01262456  .00001262  00000+0  10073-3 0  9999
2 27651  39.9917  74.3712 0018724 286.7464  73.1276 15.03855578276844
MOST                    
1 27843U 03031D   26201.01611822  .00000014  00000+0  26216-4 0  9998
2 27843  98.7054 208.2849 0010366 151.7427 208.4314 14.21328318195375
SCISAT 1                
1 27858U 03036A   26201.11217010  .00000297  00000+0  42555-4 0  9998
2 27858  73.9302 105.9256 0007122 172.7204 187.4077 14.81482105236323
SWIFT                   
1 28485U 04047A   26200.90945861  .00038752  00000+0  28015-3 0  9997
2 28485  20.5520 291.8767 0002573  76.2520 283.8213 15.71531438192010
HINODE (SOLAR-B)        
1 29479U 06041A   26201.02449976  .00000275  00000+0  55600-4 0  9997
2 29479  98.0548 216.6933 0017428 178.9775 181.1469 14.68661504 59693
SHIJIAN-6 02A (SJ-6 02A)
1 29505U 06046A   26201.26740942  .00003476  00000+0  17802-3 0  9992
2 29505  97.6339 242.5865 0003882  52.3194 307.8390 15.17276420 77286
SHIJIAN-6 02B (SJ-6 02B)
1 29506U 06046B   26201.33576419  .00000195  00000+0  19809-4 0  9992
2 29506  97.7140 230.1888 0012767 317.7996  42.2245 15.01441683 75719
FGRST (GLAST)           
1 33053U 08029A   26200.76967764  .00001783  00000+0  57896-4 0  9992
2 33053  25.5829 338.2197 0008027 354.7028   5.3425 15.24091104   664
SDO                     
1 36395U 10005A   26200.24111708 -.00000094  00000+0  00000+0 0  9998
2 36395  34.7163  85.8540 0001721  43.5863 152.2121  1.00277469 60389
CRYOSAT 2               
1 36508U 10013A   26201.23211831  .00000065  00000+0  15304-4 0  9996
2 36508  92.0355 285.3350 0002459  98.8298 261.3187 14.51899369862872
X-SAT                   
1 37389U 11015C   26201.22195331 -.00000260  00000+0 -93026-4 0  9998
2 37389  98.3539 176.6758 0012781 244.4540 115.5319 14.25213559792382
GCOM-W1 (SHIZUKU)       
1 38337U 12025A   26201.28776572  .00000215  00000+0  57762-4 0  9997
2 38337  98.2024 141.3428 0001273  79.5984  81.5097 14.57092691753851
NUSTAR                  
1 38358U 12031A   26201.33335648  .00016253  00000+0  94033-3 0  9998
2 38358   6.0261 145.4368 0009162 243.8140  34.5576 15.09062050  1307
NEOSSAT                 
1 39089U 13009D   26201.10144547  .00000054  00000+0  33543-4 0  9999
2 39089  98.4194  20.3540 0011730 143.4804 216.7184 14.35836607701466
BRITE-AUSTRIA           
1 39091U 13009F   26201.29263326  .00000073  00000+0  39363-4 0  9996
2 39091  98.4013  19.9118 0011026 136.5518 223.6539 14.36553675701808
IRIS                    
1 39197U 13033A   26201.29603419  .00000511  00000+0  64702-4 0  9993
2 39197  97.9319  40.4686 0023675 207.6428 152.3530 14.85942813705296
HISAKI (SPRINT-A)       
1 39253U 13049A   26201.27030402  .00000090  00000+0  31825-4 0  9999
2 39253  29.7218  51.8110 0136969 285.0027  73.5421 13.55547025635910
CASSIOPE                
1 39265U 13055A   26201.26168190  .00015119 -52489-6  16172-3 0  9995
2 39265  80.9138  26.4635 0281954 310.6826  47.0207 15.27584720672711
STSAT-3                 
1 39422U 13066G   26201.27080434  .00002216  00000+0  16951-3 0  9990
2 39422  97.6210 170.6256 0008805 284.9418  75.0832 15.02906566689177
