OBJECT_NAME,OBJECT_ID,EPOCH,MEAN_MOTION,ECCENTRICITY,INCLINATION,RA_OF_ASC_NODE,ARG_OF_PERICENTER,MEAN_ANOMALY,EPHEMERIS_TYPE,CLASSIFICATION_TYPE,NORAD_CAT_ID,ELEMENT_SET_NO,REV_AT_EPOCH,BSTAR,MEAN_MOTION_DOT,MEAN_MOTION_DDOT
HST,1990-037B,2026-07-20T06:12:25.274304,15.31090554,.00021205,28.4721,214.4792,152.4827,207.5881,0,U,20580,999,79364,.96916938E-4,.3225E-4,0
POLAR,1996-013A,2026-07-19T09:17:19.718592,1.29846046,.65026628,79.8986,226.6697,207.9705,92.0144,0,U,23802,999,14527,0,.162E-5,0
SWAS,1998-071A,2026-07-20T03:27:47.224512,15.09765813,.00075911,69.8945,142.5187,224.9720,135.0830,0,U,25560,999,50224,.11439433E-3,.1746E-4,0
CXO,1999-040B,2026-07-22T18:10:54.546528,0.37802015,.77765115,56.6521,115.7083,309.9609,0.5640,0,U,25867,999,1745,0,.588E-5,0
XMM-NEWTON,1999-066A,2026-07-20T06:14:17.625408,0.50127970,.46645709,64.3074,282.5600,64.3171,0.0365,0,U,25989,999,2316,0,-.7E-7,0
TERRA,1999-068A,2026-07-20T05:36:00.093024,14.61126000,.00035841,97.9437,249.4663,113.1192,319.2409,0,U,25994,999,41443,.46234012E-4,.183E-5,0
CLUSTER II-FM7 (SAMBA),2000-041A,2026-07-20T14:26:37.417344,0.44850593,.90917143,149.8020,56.9135,274.4939,359.4480,0,U,26410,999,2046,0,.10308E-3,-.3041523E-5
CLUSTER II-FM8 (TANGO),2000-045B,2026-07-18T22:53:06.823680,0.44421506,.90953904,150.0065,57.8200,275.2268,2.0610,0,U,26464,999,2045,0,.14903E-3,-.8973583E-5
ODIN,2001-007A,2026-07-20T02:04:35.434272,15.92415357,.00051244,97.3670,244.4948,155.1636,204.9886,0,U,26702,999,39460,.97863626E-3,.328733E-2,.43055449E-4
TIMED,2001-055B,2026-07-20T01:24:18.427104,14.95350599,.00023457,74.0670,168.8292,294.9378,65.1563,0,U,26998,999,33573,.57743051E-4,.597E-5,0
CORIOLIS,2003-001A,2026-07-20T05:53:05.113248,14.19952733,.00150983,98.7137,207.6264,115.7333,244.5404,0,U,27640,999,21891,.40097735E-4,.42E-6,0
SORCE,2003-004A,2026-07-20T00:18:10.761984,15.03855578,.00187244,39.9917,74.3712,286.7464,73.1276,0,U,27651,999,27684,.10072624E-3,.1262E-4,0
MOST,2003-031D,2026-07-20T00:23:12.614208,14.21328318,.00103669,98.7054,208.2849,151.7427,208.4314,0,U,27843,999,19537,.26216232E-4,.14E-6,0
SCISAT 1,2003-036A,2026-07-20T02:41:31.496640,14.81482105,.00071227,73.9302,105.9256,172.7204,187.4077,0,U,27858,999,23632,.42554773E-4,.297E-5,0
SWIFT,2004-047A,2026-07-19T21:49:37.223904,15.71531438,.00025735,20.5520,291.8767,76.2520,283.8213,0,U,28485,999,19201,.28015372E-3,.38752E-3,0
HINODE (SOLAR-B),2006-041A,2026-07-20T00:35:16.779264,14.68661504,.00174289,98.0548,216.6933,178.9775,181.1469,0,U,29479,999,5969,.55600489E-4,.275E-5,0
SHIJIAN-6 02A (SJ-6 02A),2006-046A,2026-07-20T06:25:04.173888,15.17276420,.0003882,97.6339,242.5865,52.3194,307.8390,0,U,29505,999,7728,.1780151E-3,.3476E-4,0
SHIJIAN-6 02B (SJ-6 02B),2006-046B,2026-07-20T08:03:30.026016,15.01441683,.00127672,97.7140,230.1888,317.7996,42.2245,0,U,29506,999,7571,.19808964E-4,.195E-5,0
FGRST (GLAST),2008-029A,2026-07-19T18:28:20.148096,15.24091104,.00080273,25.5829,338.2197,354.7028,5.3425,0,U,33053,999,66,.57895712E-4,.1783E-4,0
SDO,2010-005A,2026-07-19T05:47:12.515712,1.00277469,.00017212,34.7163,85.8540,43.5863,152.2121,0,U,36395,999,6038,0,-.94E-6,0
CRYOSAT 2,2010-013A,2026-07-20T05:34:15.021984,14.51899369,.00024599,92.0355,285.3350,98.8298,261.3187,0,U,36508,999,86287,.15304393E-4,.65E-6,0
X-SAT,2011-015C,2026-07-20T05:19:36.765984,14.25213559,.00127813,98.3539,176.6758,244.4540,115.5319,0,U,37389,999,79238,-.93026481E-4,-.26E-5,0
GCOM-W1 (SHIZUKU),2012-025A,2026-07-20T06:54:22.958208,14.57092691,.00012737,98.2024,141.3428,79.5984,81.5097,0,U,38337,999,75385,.57761849E-4,.215E-5,0
NUSTAR,2012-031A,2026-07-20T08:00:01.999872,15.09062050,.00091625,6.0261,145.4368,243.8140,34.5576,0,U,38358,999,130,.94032852E-3,.16253E-3,0
NEOSSAT,2013-009D,2026-07-20T02:26:04.888608,14.35836607,.00117306,98.4194,20.3540,143.4804,216.7184,0,U,39089,999,70146,.33543096E-4,.54E-6,0
BRITE-AUSTRIA,2013-009F,2026-07-20T07:01:23.513664,14.36553675,.00110267,98.4013,19.9118,136.5518,223.6539,0,U,39091,999,70180,.39363249E-4,.73E-6,0
IRIS,2013-033A,2026-07-20T07:06:17.354016,14.85942813,.00236757,97.9319,40.4686,207.6428,152.3530,0,U,39197,999,70529,.64701953E-4,.511E-5,0
HISAKI (SPRINT-A),2013-049A,2026-07-20T06:29:14.267328,13.55547025,.01369698,29.7218,51.8110,285.0027,73.5421,0,U,39253,999,63591,.31825292E-4,.9E-6,0
CASSIOPE,2013-055A,2026-07-20T06:16:49.316160,15.27584720,.02819543,80.9138,26.4635,310.6826,47.0207,0,U,39265,999,67271,.16171544E-3,.15119E-3,-.524895E-6
STSAT-3,2013-066G,2026-07-20T06:29:57.494976,15.02906566,.00088055,97.6210,170.6256,284.9418,75.0832,0,U,39422,999,68917,.16951463E-3,.2216E-4,0
